[{"CCSDS_OMM_VERS":"2.0","COMMENT":"GENERATED VIA SPACE-TRACK.ORG API","CREATION_DATE":"2021-10-02T19:12:03","ORIGINATOR":"18 SPCS","OBJECT_NAME":"TBA - TO BE ASSIGNED","OBJECT_ID":"","CENTER_NAME":"EARTH","REF_FRAME":"TEME","TIME_SYSTEM":"UTC","MEAN_ELEMENT_THEORY":"SGP4","EPOCH":"2021-10-02T11:49:51.955680","MEAN_MOTION":"13.06764813","ECCENTRICITY":"0.00198030","INCLINATION":"90.3200","RA_OF_ASC_NODE":"352.5930","ARG_OF_PERICENTER":"255.9664","MEAN_ANOMALY":"103.9260","EPHEMERIS_TYPE":"0","CLASSIFICATION_TYPE":"U","NORAD_CAT_ID":"82783","ELEMENT_SET_NO":"999","REV_AT_EPOCH":"30408","BSTAR":"0.00152610000000","MEAN_MOTION_DOT":"0.00000513","MEAN_MOTION_DDOT":"0.0000000000000","SEMIMAJOR_AXIS":"7613.837","PERIOD":"110.196","APOAPSIS":"1250.779","PERIAPSIS":"1220.624","OBJECT_TYPE":"TBA","RCS_SIZE":null,"COUNTRY_CODE":null,"LAUNCH_DATE":null,"SITE":null,"DECAY_DATE":null,"FILE":"3140729","GP_ID":"185993587","TLE_LINE0":"0 TBA - TO BE ASSIGNED","TLE_LINE1":"1 82783U          21275.49296245 +.00000513 +00000+0 +15261-2 0  9991","TLE_LINE2":"2 82783  90.3200 352.5930 0019803 255.9664 103.9260 13.06764813304084"},{"CCSDS_OMM_VERS":"2.0","COMMENT":"GENERATED VIA SPACE-TRACK.ORG API","CREATION_DATE":"2021-06-26T06:36:11","ORIGINATOR":"18 SPCS","OBJECT_NAME":"TBA - TO BE ASSIGNED","OBJECT_ID":"","CENTER_NAME":"EARTH","REF_FRAME":"TEME","TIME_SYSTEM":"UTC","MEAN_ELEMENT_THEORY":"SGP4","EPOCH":"2021-06-21T10:29:41.012736","MEAN_MOTION":"6.86617447","ECCENTRICITY":"0.44680140","INCLINATION":"61.2170","RA_OF_ASC_NODE":"194.7290","ARG_OF_PERICENTER":"250.7320","MEAN_ANOMALY":"16.2140","EPHEMERIS_TYPE":"0","CLASSIFICATION_TYPE":"U","NORAD_CAT_ID":"82778","ELEMENT_SET_NO":"999","REV_AT_EPOCH":"0","BSTAR":"0.00000000000000","MEAN_MOTION_DOT":"-0.00000532","MEAN_MOTION_DDOT":"0.0000033652000","SEMIMAJOR_AXIS":"11692.982","PERIOD":"209.724","APOAPSIS":"10539.288","PERIAPSIS":"90.406","OBJECT_TYPE":"TBA","RCS_SIZE":null,"COUNTRY_CODE":null,"LAUNCH_DATE":null,"SITE":null,"DECAY_DATE":null,"FILE":"3063095","GP_ID":"179773196","TLE_LINE0":"0 TBA - TO BE ASSIGNED","TLE_LINE1":"1 82778U          21172.43728024 -.00000532  33652-5  00000+0 0  9999","TLE_LINE2":"2 82778  61.2170 194.7290 4468014 250.7320  16.2140  6.86617447    02"},{"CCSDS_OMM_VERS":"2.0","COMMENT":"GENERATED VIA SPACE-TRACK.ORG API","CREATION_DATE":"2019-10-02T17:30:56","ORIGINATOR":"18 SPCS","OBJECT_NAME":"TBA - TO BE ASSIGNED","OBJECT_ID":null,"CENTER_NAME":"EARTH","REF_FRAME":"TEME","TIME_SYSTEM":"UTC","MEAN_ELEMENT_THEORY":"SGP4","EPOCH":"2019-10-02T05:35:37.984992","MEAN_MOTION":"14.56169869","ECCENTRICITY":"0.00180780","INCLINATION":"98.3414","RA_OF_ASC_NODE":"5.2646","ARG_OF_PERICENTER":"205.8825","MEAN_ANOMALY":"154.1470","EPHEMERIS_TYPE":"0","CLASSIFICATION_TYPE":"U","NORAD_CAT_ID":"82759","ELEMENT_SET_NO":"999","REV_AT_EPOCH":"9346","BSTAR":"0.00060949000000","MEAN_MOTION_DOT":"0.00002651","MEAN_MOTION_DDOT":"0.0000000000000","SEMIMAJOR_AXIS":"7083.705","PERIOD":"98.889","APOAPSIS":"718.376","PERIAPSIS":"692.764","OBJECT_TYPE":"TBA","RCS_SIZE":null,"COUNTRY_CODE":null,"LAUNCH_DATE":null,"SITE":null,"DECAY_DATE":null,"FILE":"2622266","GP_ID":"140503888","TLE_LINE0":"0 TBA - TO BE ASSIGNED","TLE_LINE1":"1 82759U          19275.23307853 +.00002651 +00000+0 +60949-3 0  9990","TLE_LINE2":"2 82759  98.3414   5.2646 0018078 205.8825 154.1470 14.56169869 93468"},{"CCSDS_OMM_VERS":"2.0","COMMENT":"GENERATED VIA SPACE-TRACK.ORG API","CREATION_DATE":"2021-10-02T19:12:03","ORIGINATOR":"18 SPCS","OBJECT_NAME":"TBA - TO BE ASSIGNED","OBJECT_ID":"","CENTER_NAME":"EARTH","REF_FRAME":"TEME","TIME_SYSTEM":"UTC","MEAN_ELEMENT_THEORY":"SGP4","EPOCH":"2021-10-02T12:07:59.918304","MEAN_MOTION":"14.69294279","ECCENTRICITY":"0.00030000","INCLINATION":"99.8076","RA_OF_ASC_NODE":"6.2671","ARG_OF_PERICENTER":"195.5846","MEAN_ANOMALY":"164.5262","EPHEMERIS_TYPE":"0","CLASSIFICATION_TYPE":"U","NORAD_CAT_ID":"82755","ELEMENT_SET_NO":"999","REV_AT_EPOCH":"41899","BSTAR":"0.00119690000000","MEAN_MOTION_DOT":"0.00007004","MEAN_MOTION_DDOT":"0.0000000000000","SEMIMAJOR_AXIS":"7041.459","PERIOD":"98.006","APOAPSIS":"665.436","PERIAPSIS":"661.211","OBJECT_TYPE":"TBA","RCS_SIZE":null,"COUNTRY_CODE":null,"LAUNCH_DATE":null,"SITE":null,"DECAY_DATE":null,"FILE":"3140729","GP_ID":"185993580","TLE_LINE0":"0 TBA - TO BE ASSIGNED","TLE_LINE1":"1 82755U          21275.50555461 +.00007004 +00000+0 +11969-2 0  9993","TLE_LINE2":"2 82755  99.8076   6.2671 0003000 195.5846 164.5262 14.69294279418991"},{"CCSDS_OMM_VERS":"2.0","COMMENT":"GENERATED VIA SPACE-TRACK.ORG API","CREATION_DATE":"2021-10-02T19:12:03","ORIGINATOR":"18 SPCS","OBJECT_NAME":"TBA - TO BE ASSIGNED","OBJECT_ID":"","CENTER_NAME":"EARTH","REF_FRAME":"TEME","TIME_SYSTEM":"UTC","MEAN_ELEMENT_THEORY":"SGP4","EPOCH":"2021-10-02T13:22:32.436768","MEAN_MOTION":"14.67435479","ECCENTRICITY":"0.00414100","INCLINATION":"102.8505","RA_OF_ASC_NODE":"215.5724","ARG_OF_PERICENTER":"23.8038","MEAN_ANOMALY":"336.5051","EPHEMERIS_TYPE":"0","CLASSIFICATION_TYPE":"U","NORAD_CAT_ID":"82748","ELEMENT_SET_NO":"999","REV_AT_EPOCH":"33139","BSTAR":"0.01281200000000","MEAN_MOTION_DOT":"0.00074191","MEAN_MOTION_DDOT":"0.0000000000000","SEMIMAJOR_AXIS":"7047.404","PERIOD":"98.130","APOAPSIS":"698.452","PERIAPSIS":"640.086","OBJECT_TYPE":"TBA","RCS_SIZE":null,"COUNTRY_CODE":null,"LAUNCH_DATE":null,"SITE":null,"DECAY_DATE":null,"FILE":"3140729","GP_ID":"185993299","TLE_LINE0":"0 TBA - TO BE ASSIGNED","TLE_LINE1":"1 82748U          21275.55731987 +.00074191 +00000+0 +12812-1 0  9997","TLE_LINE2":"2 82748 102.8505 215.5724 0041410  23.8038 336.5051 14.67435479331394"},{"CCSDS_OMM_VERS":"2.0","COMMENT":"GENERATED VIA SPACE-TRACK.ORG API","CREATION_DATE":"2021-09-20T17:37:01","ORIGINATOR":"18 SPCS","OBJECT_NAME":"TBA - TO BE ASSIGNED","OBJECT_ID":"","CENTER_NAME":"EARTH","REF_FRAME":"TEME","TIME_SYSTEM":"UTC","MEAN_ELEMENT_THEORY":"SGP4","EPOCH":"2021-09-20T09:17:31.315200","MEAN_MOTION":"14.23456133","ECCENTRICITY":"0.00600630","INCLINATION":"99.5816","RA_OF_ASC_NODE":"326.9243","ARG_OF_PERICENTER":"122.0442","MEAN_ANOMALY":"238.6587","EPHEMERIS_TYPE":"0","CLASSIFICATION_TYPE":"U","NORAD_CAT_ID":"82742","ELEMENT_SET_NO":"999","REV_AT_EPOCH":"32296","BSTAR":"0.00066826000000","MEAN_MOTION_DOT":"0.00001496","MEAN_MOTION_DDOT":"0.0000000000000","SEMIMAJOR_AXIS":"7191.825","PERIOD":"101.162","APOAPSIS":"856.886","PERIAPSIS":"770.494","OBJECT_TYPE":"TBA","RCS_SIZE":null,"COUNTRY_CODE":null,"LAUNCH_DATE":null,"SITE":null,"DECAY_DATE":null,"FILE":"3121162","GP_ID":"185075360","TLE_LINE0":"0 TBA - TO BE ASSIGNED","TLE_LINE1":"1 82742U          21263.38716800 +.00001496 +00000+0 +66826-3 0  9990","TLE_LINE2":"2 82742  99.5816 326.9243 0060063 122.0442 238.6587 14.23456133322965"},{"CCSDS_OMM_VERS":"2.0","COMMENT":"GENERATED VIA SPACE-TRACK.ORG API","CREATION_DATE":"2021-10-02T19:12:03","ORIGINATOR":"18 SPCS","OBJECT_NAME":"TBA - TO BE ASSIGNED","OBJECT_ID":"","CENTER_NAME":"EARTH","REF_FRAME":"TEME","TIME_SYSTEM":"UTC","MEAN_ELEMENT_THEORY":"SGP4","EPOCH":"2021-10-02T13:00:50.899392","MEAN_MOTION":"13.56476843","ECCENTRICITY":"0.02129790","INCLINATION":"102.8690","RA_OF_ASC_NODE":"173.8959","ARG_OF_PERICENTER":"63.8115","MEAN_ANOMALY":"298.4742","EPHEMERIS_TYPE":"0","CLASSIFICATION_TYPE":"U","NORAD_CAT_ID":"82741","ELEMENT_SET_NO":"999","REV_AT_EPOCH":"38872","BSTAR":"0.00109420000000","MEAN_MOTION_DOT":"0.00000826","MEAN_MOTION_DDOT":"0.0000000000000","SEMIMAJOR_AXIS":"7426.661","PERIOD":"106.157","APOAPSIS":"1206.698","PERIAPSIS":"890.353","OBJECT_TYPE":"TBA","RCS_SIZE":null,"COUNTRY_CODE":null,"LAUNCH_DATE":null,"SITE":null,"DECAY_DATE":null,"FILE":"3140729","GP_ID":"185993546","TLE_LINE0":"0 TBA - TO BE ASSIGNED","TLE_LINE1":"1 82741U          21275.54225578 +.00000826 +00000+0 +10942-2 0  9990","TLE_LINE2":"2 82741 102.8690 173.8959 0212979  63.8115 298.4742 13.56476843388727"},{"CCSDS_OMM_VERS":"2.0","COMMENT":"GENERATED VIA SPACE-TRACK.ORG API","CREATION_DATE":"2021-10-02T19:12:03","ORIGINATOR":"18 SPCS","OBJECT_NAME":"TBA - TO BE ASSIGNED","OBJECT_ID":"","CENTER_NAME":"EARTH","REF_FRAME":"TEME","TIME_SYSTEM":"UTC","MEAN_ELEMENT_THEORY":"SGP4","EPOCH":"2021-10-02T01:28:45.732288","MEAN_MOTION":"13.76429609","ECCENTRICITY":"0.01851660","INCLINATION":"99.0481","RA_OF_ASC_NODE":"119.5245","ARG_OF_PERICENTER":"57.8243","MEAN_ANOMALY":"91.9118","EPHEMERIS_TYPE":"0","CLASSIFICATION_TYPE":"U","NORAD_CAT_ID":"82739","ELEMENT_SET_NO":"999","REV_AT_EPOCH":"39487","BSTAR":"0.00068870000000","MEAN_MOTION_DOT":"0.00000723","MEAN_MOTION_DDOT":"0.0000000000000","SEMIMAJOR_AXIS":"7354.715","PERIOD":"104.618","APOAPSIS":"1112.764","PERIAPSIS":"840.395","OBJECT_TYPE":"TBA","RCS_SIZE":null,"COUNTRY_CODE":null,"LAUNCH_DATE":null,"SITE":null,"DECAY_DATE":null,"FILE":"3140729","GP_ID":"185993457","TLE_LINE0":"0 TBA - TO BE ASSIGNED","TLE_LINE1":"1 82739U          21275.06164042 +.00000723 +00000+0 +68870-3 0  9992","TLE_LINE2":"2 82739  99.0481 119.5245 0185166  57.8243  91.9118 13.76429609394872"}]